1 27424U 02022A   10017.24318114  .00000037  00000-0  18202-4 0  5373
2 27424 098.2037 320.9864 0000983 112.2043 247.9266 14.57115728409937